{
  "type": "FeatureCollection",
  "features": [
    {
      "type": "Feature",
      "properties": {
        "norad_id": 66669,
        "name": "TRANSPORTER-15 D",
        "group": "last-30-days",
        "lat": 79.01698239130108,
        "lon": 25.50812254617029,
        "alt_km": 498.05295079483494,
        "timestamp": "2025-12-22T04:03:37.886325+00:00",
        "meta_object_name": "TRANSPORTER-15 D",
        "meta_object_id": "2025-276D",
        "meta_epoch": "2025-12-21T02:39:18.210816",
        "meta_mean_motion": 15.34134881,
        "meta_eccentricity": 0.00748198,
        "meta_inclination": 97.4314,
        "meta_ra_of_asc_node": 66.7079,
        "meta_arg_of_pericenter": 232.3102,
        "meta_mean_anomaly": 127.1341,
        "meta_ephemeris_type": 0,
        "meta_classification_type": "U",
        "meta_norad_cat_id": 66669,
        "meta_element_set_no": 999,
        "meta_rev_at_epoch": 339,
        "meta_bstar": 0.0027830351,
        "meta_mean_motion_dot": 0.00101698,
        "meta_mean_motion_ddot": 0,
        "tle_line1": "1 66669U 25276D   25355.11062744  .00101698  00000+0  27830-2 0  9996",
        "tle_line2": "2 66669  97.4314  66.7079 0074819 232.3102 127.1341 15.34134881  3392"
      },
      "geometry": {
        "type": "Point",
        "coordinates": [
          25.50812254617029,
          79.01698239130108
        ]
      }
    },
    {
      "type": "Feature",
      "properties": {
        "norad_id": 66670,
        "name": "TRANSPORTER-15 E",
        "group": "last-30-days",
        "lat": -47.875268658072024,
        "lon": 76.01495898611111,
        "alt_km": 517.3049481934149,
        "timestamp": "2025-12-22T04:03:37.886338+00:00",
        "meta_object_name": "TRANSPORTER-15 E",
        "meta_object_id": "2025-276E",
        "meta_epoch": "2025-12-21T17:11:35.602656",
        "meta_mean_motion": 15.17177066,
        "meta_eccentricity": 0.0007158,
        "meta_inclination": 97.4304,
        "meta_ra_of_asc_node": 67.2736,
        "meta_arg_of_pericenter": 275.4928,
        "meta_mean_anomaly": 84.5489,
        "meta_ephemeris_type": 0,
        "meta_classification_type": "U",
        "meta_norad_cat_id": 66670,
        "meta_element_set_no": 999,
        "meta_rev_at_epoch": 348,
        "meta_bstar": 0.00091837,
        "meta_mean_motion_dot": 0.00018214,
        "meta_mean_motion_ddot": 0,
        "tle_line1": "1 66670U 25276E   25355.71638429  .00018214  00000+0  91837-3 0  9993",
        "tle_line2": "2 66670  97.4304  67.2736 0007158 275.4928  84.5489 15.17177066  3487"
      },
      "geometry": {
        "type": "Point",
        "coordinates": [
          76.01495898611111,
          -47.875268658072024
        ]
      }
    },
    {
      "type": "Feature",
      "properties": {
        "norad_id": 66671,
        "name": "TRANSPORTER-15 F",
        "group": "last-30-days",
        "lat": -36.488764389914934,
        "lon": 73.3044912752542,
        "alt_km": 519.7387600417651,
        "timestamp": "2025-12-22T04:03:37.886349+00:00",
        "meta_object_name": "TRANSPORTER-15 F",
        "meta_object_id": "2025-276F",
        "meta_epoch": "2025-12-21T18:43:28.869600",
        "meta_mean_motion": 15.17079468,
        "meta_eccentricity": 0.0005058,
        "meta_inclination": 97.4425,
        "meta_ra_of_asc_node": 67.3739,
        "meta_arg_of_pericenter": 256.7561,
        "meta_mean_anomaly": 103.3108,
        "meta_ephemeris_type": 0,
        "meta_classification_type": "U",
        "meta_norad_cat_id": 66671,
        "meta_element_set_no": 999,
        "meta_rev_at_epoch": 349,
        "meta_bstar": 0.00053094,
        "meta_mean_motion_dot": 0.00010458,
        "meta_mean_motion_ddot": 0,
        "tle_line1": "1 66671U 25276F   25355.78019525  .00010458  00000+0  53094-3 0  9996",
        "tle_line2": "2 66671  97.4425  67.3739 0005058 256.7561 103.3108 15.17079468  3494"
      },
      "geometry": {
        "type": "Point",
        "coordinates": [
          73.3044912752542,
          -36.488764389914934
        ]
      }
    },
    {
      "type": "Feature",
      "properties": {
        "norad_id": 66672,
        "name": "TRANSPORTER-15 G",
        "group": "last-30-days",
        "lat": -60.94161983447057,
        "lon": 81.34041732014741,
        "alt_km": 520.6255273877614,
        "timestamp": "2025-12-22T04:03:37.886358+00:00",
        "meta_object_name": "TRANSPORTER-15 G",
        "meta_object_id": "2025-276G",
        "meta_epoch": "2025-12-21T17:14:54.102336",
        "meta_mean_motion": 15.16616778,
        "meta_eccentricity": 0.0005394,
        "meta_inclination": 97.44,
        "meta_ra_of_asc_node": 67.296,
        "meta_arg_of_pericenter": 254.5696,
        "meta_mean_anomaly": 105.4941,
        "meta_ephemeris_type": 0,
        "meta_classification_type": "U",
        "meta_norad_cat_id": 66672,
        "meta_element_set_no": 999,
        "meta_rev_at_epoch": 348,
        "meta_bstar": 0.00034384,
        "meta_mean_motion_dot": 6.657e-05,
        "meta_mean_motion_ddot": 0,
        "tle_line1": "1 66672U 25276G   25355.71868174  .00006657  00000+0  34384-3 0  9999",
        "tle_line2": "2 66672  97.4400  67.2960 0005394 254.5696 105.4941 15.16616778  3488"
      },
      "geometry": {
        "type": "Point",
        "coordinates": [
          81.34041732014741,
          -60.94161983447057
        ]
      }
    },
    {
      "type": "Feature",
      "properties": {
        "norad_id": 66673,
        "name": "TRANSPORTER-15 H",
        "group": "last-30-days",
        "lat": -41.84188891075994,
        "lon": 74.4529950946772,
        "alt_km": 518.4934555175732,
        "timestamp": "2025-12-22T04:03:37.886370+00:00",
        "meta_object_name": "TRANSPORTER-15 H",
        "meta_object_id": "2025-276H",
        "meta_epoch": "2025-12-21T17:09:56.039616",
        "meta_mean_motion": 15.17084295,
        "meta_eccentricity": 0.0005798,
        "meta_inclination": 97.4368,
        "meta_ra_of_asc_node": 67.2908,
        "meta_arg_of_pericenter": 273.7242,
        "meta_mean_anomaly": 86.3328,
        "meta_ephemeris_type": 0,
        "meta_classification_type": "U",
        "meta_norad_cat_id": 66673,
        "meta_element_set_no": 999,
        "meta_rev_at_epoch": 348,
        "meta_bstar": 0.00051669,
        "meta_mean_motion_dot": 0.00010178,
        "meta_mean_motion_ddot": 0,
        "tle_line1": "1 66673U 25276H   25355.71523194  .00010178  00000+0  51669-3 0  9998",
        "tle_line2": "2 66673  97.4368  67.2908 0005798 273.7242  86.3328 15.17084295  3482"
      },
      "geometry": {
        "type": "Point",
        "coordinates": [
          74.4529950946772,
          -41.84188891075994
        ]
      }
    },
    {
      "type": "Feature",
      "properties": {
        "norad_id": 66674,
        "name": "TRANSPORTER-15 J",
        "group": "last-30-days",
        "lat": -59.652666336702424,
        "lon": 80.62456557806236,
        "alt_km": 526.0972353380639,
        "timestamp": "2025-12-22T04:03:37.886380+00:00",
        "meta_object_name": "TRANSPORTER-15 J",
        "meta_object_id": "2025-276J",
        "meta_epoch": "2025-12-21T10:53:16.478880",
        "meta_mean_motion": 15.15191397,
        "meta_eccentricity": 0.00065005,
        "meta_inclination": 97.4372,
        "meta_ra_of_asc_node": 67.0325,
        "meta_arg_of_pericenter": 333.1103,
        "meta_mean_anomaly": 26.9792,
        "meta_ephemeris_type": 0,
        "meta_classification_type": "U",
        "meta_norad_cat_id": 66674,
        "meta_element_set_no": 999,
        "meta_rev_at_epoch": 344,
        "meta_bstar": -0.028180021,
        "meta_mean_motion_dot": -0.00494676,
        "meta_mean_motion_ddot": 0,
        "tle_line1": "1 66674U 25276J   25355.45366295 -.00494676  00000+0 -28180-1 0  9998",
        "tle_line2": "2 66674  97.4372  67.0325 0006500 333.1103  26.9792 15.15191397  3449"
      },
      "geometry": {
        "type": "Point",
        "coordinates": [
          80.62456557806236,
          -59.652666336702424
        ]
      }
    },
    {
      "type": "Feature",
      "properties": {
        "norad_id": 66675,
        "name": "TRANSPORTER-15 K",
        "group": "last-30-days",
        "lat": -41.60453280054389,
        "lon": 74.40723623169751,
        "alt_km": 519.6330159204344,
        "timestamp": "2025-12-22T04:03:37.886394+00:00",
        "meta_object_name": "TRANSPORTER-15 K",
        "meta_object_id": "2025-276K",
        "meta_epoch": "2025-12-21T10:49:53.124384",
        "meta_mean_motion": 15.16978011,
        "meta_eccentricity": 0.00049979,
        "meta_inclination": 97.4394,
        "meta_ra_of_asc_node": 67.0396,
        "meta_arg_of_pericenter": 265.0814,
        "meta_mean_anomaly": 94.9849,
        "meta_ephemeris_type": 0,
        "meta_classification_type": "U",
        "meta_norad_cat_id": 66675,
        "meta_element_set_no": 999,
        "meta_rev_at_epoch": 344,
        "meta_bstar": 0.00047273134,
        "meta_mean_motion_dot": 9.276e-05,
        "meta_mean_motion_ddot": 0,
        "tle_line1": "1 66675U 25276K   25355.45130931  .00009276  00000+0  47273-3 0  9997",
        "tle_line2": "2 66675  97.4394  67.0396 0004997 265.0814  94.9849 15.16978011  3447"
      },
      "geometry": {
        "type": "Point",
        "coordinates": [
          74.40723623169751,
          -41.60453280054389
        ]
      }
    }
  ]
}